{"type": "FeatureCollection", "features": [ {"type": "Feature", "properties": {"norad_id": 37867, "name": "COSMOS 2476 (744)", "group": "gnss", "lat": -22.513332973474117, "lon": -89.58818786801447, "alt_km": 19079.474616937503, "timestamp": "2025-12-07T07:31:36.541326+00:00", "meta": {"OBJECT_NAME": "COSMOS 2476 (744)", "OBJECT_ID": "2011-064A", "EPOCH": "2025-12-02T19:57:36.313920", "MEAN_MOTION": 2.13101261, "ECCENTRICITY": 0.00239603, "INCLINATION": 65.1573, "RA_OF_ASC_NODE": 79.5068, "ARG_OF_PERICENTER": 233.4935, "MEAN_ANOMALY": 133.1658, "EPHEMERIS_TYPE": 0, "CLASSIFICATION_TYPE": "U", "NORAD_CAT_ID": 37867, "ELEMENT_SET_NO": 999, "REV_AT_EPOCH": 10958, "BSTAR": 0, "MEAN_MOTION_DOT": -2.2e-07, "MEAN_MOTION_DDOT": 0}, "tle": {"line1": "1 37867U 11064A   25336.83167030 -.00000022  00000+0  00000+0 0  9993", "line2": "2 37867  65.1573  79.5068 0023960 233.4935 133.1658  2.13101261109581"}}, "geometry": {"type": "Point", "coordinates": [-89.58818786801447, -22.513332973474117]}}, {"type": "Feature", "properties": {"norad_id": 37868, "name": "COSMOS 2477 (745)", "group": "gnss", "lat": 23.487655978911224, "lon": 91.0282350790791, "alt_km": 19174.68600667759, "timestamp": "2025-12-07T07:31:36.541346+00:00", "meta": {"OBJECT_NAME": "COSMOS 2477 (745)", "OBJECT_ID": "2011-064B", "EPOCH": "2025-12-01T05:34:43.743072", "MEAN_MOTION": 2.1310269, "ECCENTRICITY": 0.00209845, "INCLINATION": 65.1625, "RA_OF_ASC_NODE": 79.6383, "ARG_OF_PERICENTER": 233.8301, "MEAN_ANOMALY": 166.8442, "EPHEMERIS_TYPE": 0, "CLASSIFICATION_TYPE": "U", "NORAD_CAT_ID": 37868, "ELEMENT_SET_NO": 999, "REV_AT_EPOCH": 10954, "BSTAR": 0, "MEAN_MOTION_DOT": -1.2e-07, "MEAN_MOTION_DDOT": 0}, "tle": {"line1": "1 37868U 11064B   25335.23245073 -.00000012  00000+0  00000+0 0  9990", "line2": "2 37868  65.1625  79.6383 0020984 233.8301 166.8442  2.13102690109542"}}, "geometry": {"type": "Point", "coordinates": [91.0282350790791, 23.487655978911224]}}, {"type": "Feature", "properties": {"norad_id": 37869, "name": "COSMOS 2475 (743)", "group": "gnss", "lat": -16.106725821458003, "lon": 71.7893369950027, "alt_km": 19136.7495619662, "timestamp": "2025-12-07T07:31:36.541359+00:00", "meta": {"OBJECT_NAME": "COSMOS 2475 (743)", "OBJECT_ID": "2011-064C", "EPOCH": "2025-12-06T20:41:38.457024", "MEAN_MOTION": 2.13101363, "ECCENTRICITY": 0.00262183, "INCLINATION": 65.1726, "RA_OF_ASC_NODE": 79.4678, "ARG_OF_PERICENTER": 248.5311, "MEAN_ANOMALY": 107.1127, "EPHEMERIS_TYPE": 0, "CLASSIFICATION_TYPE": "U", "NORAD_CAT_ID": 37869, "ELEMENT_SET_NO": 999, "REV_AT_EPOCH": 10966, "BSTAR": 0, "MEAN_MOTION_DOT": -1.4e-07, "MEAN_MOTION_DDOT": 0}, "tle": {"line1": "1 37869U 11064C   25340.86225066 -.00000014  00000+0  00000+0 0  9998", "line2": "2 37869  65.1726  79.4678 0026218 248.5311 107.1127  2.13101363109667"}}, "geometry": {"type": "Point", "coordinates": [71.7893369950027, -16.106725821458003]}}, {"type": "Feature", "properties": {"norad_id": 37948, "name": "BEIDOU-2 IGSO-5 (C10)", "group": "gnss", "lat": 6.427665026488711, "lon": -80.29703035994385, "alt_km": 36166.5663739296, "timestamp": "2025-12-07T07:31:36.541374+00:00", "meta": {"OBJECT_NAME": "BEIDOU-2 IGSO-5 (C10)", "OBJECT_ID": "2011-073A", "EPOCH": "2025-12-06T19:14:09.676896", "MEAN_MOTION": 1.00291748, "ECCENTRICITY": 0.01104743, "INCLINATION": 48.0318, "RA_OF_ASC_NODE": 273.9307, "ARG_OF_PERICENTER": 222.1618, "MEAN_ANOMALY": 320.8955, "EPHEMERIS_TYPE": 0, "CLASSIFICATION_TYPE": "U", "NORAD_CAT_ID": 37948, "ELEMENT_SET_NO": 999, "REV_AT_EPOCH": 5120, "BSTAR": 0, "MEAN_MOTION_DOT": -1.84e-06, "MEAN_MOTION_DDOT": 0}, "tle": {"line1": "1 37948U 11073A   25340.80150089 -.00000184  00000+0  00000+0 0  9990", "line2": "2 37948  48.0318 273.9307 0110474 222.1618 320.8955  1.00291748 51209"}}, "geometry": {"type": "Point", "coordinates": [-80.29703035994385, 6.427665026488711]}}, {"type": "Feature", "properties": {"norad_id": 37951, "name": "LUCH 5A (SDCM/PRN 140)", "group": "gnss", "lat": -8.147615685882613, "lon": -3.5772967228667296, "alt_km": 35792.15284603999, "timestamp": "2025-12-07T07:31:36.541386+00:00", "meta": {"OBJECT_NAME": "LUCH 5A (SDCM/PRN 140)", "OBJECT_ID": "2011-074B", "EPOCH": "2025-12-06T14:27:30.021984", "MEAN_MOTION": 1.00273733, "ECCENTRICITY": 0.00058841, "INCLINATION": 8.2637, "RA_OF_ASC_NODE": 76.6749, "ARG_OF_PERICENTER": 176.6717, "MEAN_ANOMALY": 206.1734, "EPHEMERIS_TYPE": 0, "CLASSIFICATION_TYPE": "U", "NORAD_CAT_ID": 37951, "ELEMENT_SET_NO": 999, "REV_AT_EPOCH": 5112, "BSTAR": 0, "MEAN_MOTION_DOT": -4.6e-07, "MEAN_MOTION_DDOT": 0}, "tle": {"line1": "1 37951U 11074B   25340.60243081 -.00000046  00000+0  00000+0 0  9995", "line2": "2 37951   8.2637  76.6749 0005884 176.6717 206.1734  1.00273733 51120"}}, "geometry": {"type": "Point", "coordinates": [-3.5772967228667296, -8.147615685882613]}}, {"type": "Feature", "properties": {"norad_id": 38091, "name": "BEIDOU-2 G5 (C05)", "group": "gnss", "lat": 0.13049962657997669, "lon": -112.1389093201662, "alt_km": 35750.82641249831, "timestamp": "2025-12-07T07:31:36.541398+00:00", "meta": {"OBJECT_NAME": "BEIDOU-2 G5 (C05)", "OBJECT_ID": "2012-008A", "EPOCH": "2025-12-06T20:12:38.759328", "MEAN_MOTION": 1.00273478, "ECCENTRICITY": 0.00125168, "INCLINATION": 3.094, "RA_OF_ASC_NODE": 70.7271, "ARG_OF_PERICENTER": 226.3486, "MEAN_ANOMALY": 140.6845, "EPHEMERIS_TYPE": 0, "CLASSIFICATION_TYPE": "U", "NORAD_CAT_ID": 38091, "ELEMENT_SET_NO": 999, "REV_AT_EPOCH": 5044, "BSTAR": 0, "MEAN_MOTION_DOT": 6.1e-07, "MEAN_MOTION_DDOT": 0}, "tle": {"line1": "1 38091U 12008A   25340.84211527  .00000061  00000+0  00000+0 0  9991", "line2": "2 38091   3.0940  70.7271 0012516 226.3486 140.6845  1.00273478 50442"}}, "geometry": {"type": "Point", "coordinates": [-112.1389093201662, 0.13049962657997669]}}, {"type": "Feature", "properties": {"norad_id": 38250, "name": "BEIDOU-2 M3 (C11)", "group": "gnss", "lat": -44.78446001654927, "lon": 173.49545430408867, "alt_km": 21477.885130635314, "timestamp": "2025-12-07T07:31:36.541410+00:00", "meta": {"OBJECT_NAME": "BEIDOU-2 M3 (C11)", "OBJECT_ID": "2012-018A", "EPOCH": "2025-12-05T21:12:32.531040", "MEAN_MOTION": 1.86229708, "ECCENTRICITY": 0.00244284, "INCLINATION": 55.926, "RA_OF_ASC_NODE": 311.388, "ARG_OF_PERICENTER": 273.8805, "MEAN_ANOMALY": 85.8231, "EPHEMERIS_TYPE": 0, "CLASSIFICATION_TYPE": "U", "NORAD_CAT_ID": 38250, "ELEMENT_SET_NO": 999, "REV_AT_EPOCH": 9234, "BSTAR": 0, "MEAN_MOTION_DOT": -7e-07, "MEAN_MOTION_DDOT": 0}, "tle": {"line1": "1 38250U 12018A   25339.88370985 -.00000070  00000+0  00000+0 0  9996", "line2": "2 38250  55.9260 311.3880 0024428 273.8805  85.8231  1.86229708 92342"}}, "geometry": {"type": "Point", "coordinates": [173.49545430408867, -44.78446001654927]}}, {"type": "Feature", "properties": {"norad_id": 38251, "name": "BEIDOU-2 M4 (C12)", "group": "gnss", "lat": -53.36232429042426, "lon": -115.37331460164074, "alt_km": 21490.77754985686, "timestamp": "2025-12-07T07:31:36.541421+00:00", "meta": {"OBJECT_NAME": "BEIDOU-2 M4 (C12)", "OBJECT_ID": "2012-018B", "EPOCH": "2025-12-05T06:41:27.869856", "MEAN_MOTION": 1.86229397, "ECCENTRICITY": 0.00155808, "INCLINATION": 55.8281, "RA_OF_ASC_NODE": 310.638, "ARG_OF_PERICENTER": 277.012, "MEAN_ANOMALY": 82.7935, "EPHEMERIS_TYPE": 0, "CLASSIFICATION_TYPE": "U", "NORAD_CAT_ID": 38251, "ELEMENT_SET_NO": 999, "REV_AT_EPOCH": 9233, "BSTAR": 0, "MEAN_MOTION_DOT": -6.9e-07, "MEAN_MOTION_DDOT": 0}, "tle": {"line1": "1 38251U 12018B   25339.27879479 -.00000069  00000+0  00000+0 0  9990", "line2": "2 38251  55.8281 310.6380 0015580 277.0120  82.7935  1.86229397 92337"}}, "geometry": {"type": "Point", "coordinates": [-115.37331460164074, -53.36232429042426]}}, {"type": "Feature", "properties": {"norad_id": 38652, "name": "SES-5 (EGNOS/PRN 136)", "group": "gnss", "lat": -0.06745596279651374, "lon": -165.81651550541542, "alt_km": 35781.362163323734, "timestamp": "2025-12-07T07:31:36.541433+00:00", "meta": {"OBJECT_NAME": "SES-5 (EGNOS/PRN 136)", "OBJECT_ID": "2012-036A", "EPOCH": "2025-12-06T15:24:07.748640", "MEAN_MOTION": 1.00270241, "ECCENTRICITY": 0.00022413, "INCLINATION": 0.0573, "RA_OF_ASC_NODE": 305.2788, "ARG_OF_PERICENTER": 306.2275, "MEAN_ANOMALY": 60.1789, "EPHEMERIS_TYPE": 0, "CLASSIFICATION_TYPE": "U", "NORAD_CAT_ID": 38652, "ELEMENT_SET_NO": 999, "REV_AT_EPOCH": 4253, "BSTAR": 0, "MEAN_MOTION_DOT": 4e-07, "MEAN_MOTION_DDOT": 0}, "tle": {"line1": "1 38652U 12036A   25340.64175635  .00000040  00000+0  00000+0 0  9999", "line2": "2 38652   0.0573 305.2788 0002241 306.2275  60.1789  1.00270241 42530"}}, "geometry": {"type": "Point", "coordinates": [-165.81651550541542, -0.06745596279651374]}}, {"type": "Feature", "properties": {"norad_id": 38775, "name": "BEIDOU-2 M6 (C14)", "group": "gnss", "lat": 47.27190472212973, "lon": -156.74511945064845, "alt_km": 21543.05856585027, "timestamp": "2025-12-07T07:31:36.541474+00:00", "meta": {"OBJECT_NAME": "BEIDOU-2 M6 (C14)", "OBJECT_ID": "2012-050B", "EPOCH": "2025-12-06T01:31:40.709568", "MEAN_MOTION": 1.86230702, "ECCENTRICITY": 0.00109743, "INCLINATION": 56.3728, "RA_OF_ASC_NODE": 69.289, "ARG_OF_PERICENTER": 345.7667, "MEAN_ANOMALY": 14.2153, "EPHEMERIS_TYPE": 0, "CLASSIFICATION_TYPE": "U", "NORAD_CAT_ID": 38775, "ELEMENT_SET_NO": 999, "REV_AT_EPOCH": 8971, "BSTAR": 0, "MEAN_MOTION_DOT": -4.7e-07, "MEAN_MOTION_DDOT": 0}, "tle": {"line1": "1 38775U 12050B   25340.06366562 -.00000047  00000+0  00000+0 0  9996", "line2": "2 38775  56.3728  69.2890 0010974 345.7667  14.2153  1.86230702 89716"}}, "geometry": {"type": "Point", "coordinates": [-156.74511945064845, 47.27190472212973]}}]}